[{"OBJECT_NAME":"FORESAIL-1 PRIME","OBJECT_ID":"2025-276DS","EPOCH":"2026-03-09T22:28:09.304320","MEAN_MOTION":15.17695918,"ECCENTRICITY":0.00039797,"INCLINATION":97.4274,"RA_OF_ASC_NODE":144.0627,"ARG_OF_PERICENTER":95.0578,"MEAN_ANOMALY":265.111,"EPHEMERIS_TYPE":0,"CLASSIFICATION_TYPE":"U","NORAD_CAT_ID":66778,"ELEMENT_SET_NO":999,"REV_AT_EPOCH":1534,"BSTAR":0.00034805392,"MEAN_MOTION_DOT":6.952e-5,"MEAN_MOTION_DDOT":0},{"OBJECT_NAME":"CONNECTA IOT-16","OBJECT_ID":"2026-004AD","EPOCH":"2026-03-09T22:28:21.027072","MEAN_MOTION":15.16909547,"ECCENTRICITY":0.00029488,"INCLINATION":97.4598,"RA_OF_ASC_NODE":69.3831,"ARG_OF_PERICENTER":354.609,"MEAN_ANOMALY":5.5111,"EPHEMERIS_TYPE":0,"CLASSIFICATION_TYPE":"U","NORAD_CAT_ID":67390,"ELEMENT_SET_NO":999,"REV_AT_EPOCH":869,"BSTAR":0.00024828447,"MEAN_MOTION_DOT":4.827e-5,"MEAN_MOTION_DDOT":0}]
